CCSDS_OMM_VERS = 2.0
CREATION_DATE  = 
ORIGINATOR     = 

OBJECT_NAME    = ATLAS CENTAUR R/B
OBJECT_ID      = 1972-065B
CENTER_NAME    = EARTH
REF_FRAME      = TEME
TIME_SYSTEM    = UTC
MEAN_ELEMENT_THEORY = SGP/SGP4

EPOCH          = 2025-11-23T01:28:09.764832
MEAN_MOTION    = 14.77335263
ECCENTRICITY   = .00339986
INCLINATION    = 35.0006
RA_OF_ASC_NODE = 210.4657
ARG_OF_PERICENTER = 194.6256
MEAN_ANOMALY   = 165.3463

EPHEMERIS_TYPE = 0
CLASSIFICATION_TYPE = U
NORAD_CAT_ID   = 6155
ELEMENT_SET_NO = 999
REV_AT_EPOCH   = 82548
BSTAR          = .18143856E-3
MEAN_MOTION_DOT = .1299E-4
MEAN_MOTION_DDOT = 0

CCSDS_OMM_VERS = 2.0
CREATION_DATE  = 
ORIGINATOR     = 

OBJECT_NAME    = SL-8 R/B
OBJECT_ID      = 1975-112B
CENTER_NAME    = EARTH
REF_FRAME      = TEME
TIME_SYSTEM    = UTC
MEAN_ELEMENT_THEORY = SGP/SGP4

EPOCH          = 2025-11-23T18:29:26.871360
MEAN_MOTION    = 14.38127713
ECCENTRICITY   = .0016137
INCLINATION    = 74.0605
RA_OF_ASC_NODE = 213.7476
ARG_OF_PERICENTER = 327.6762
MEAN_ANOMALY   = 32.3402

EPHEMERIS_TYPE = 0
CLASSIFICATION_TYPE = U
NORAD_CAT_ID   = 8459
ELEMENT_SET_NO = 999
REV_AT_EPOCH   = 61664
BSTAR          = .99438E-4
MEAN_MOTION_DOT = .276E-5
MEAN_MOTION_DDOT = 0

CCSDS_OMM_VERS = 2.0
CREATION_DATE  = 
ORIGINATOR     = 

OBJECT_NAME    = SL-3 R/B
OBJECT_ID      = 1977-057B
CENTER_NAME    = EARTH
REF_FRAME      = TEME
TIME_SYSTEM    = UTC
MEAN_ELEMENT_THEORY = SGP/SGP4

EPOCH          = 2025-11-23T16:26:35.956032
MEAN_MOTION    = 15.42320223
ECCENTRICITY   = .0006781
INCLINATION    = 97.5685
RA_OF_ASC_NODE = 130.2814
ARG_OF_PERICENTER = 313.0548
MEAN_ANOMALY   = 47.0130

EPHEMERIS_TYPE = 0
CLASSIFICATION_TYPE = U
NORAD_CAT_ID   = 10114
ELEMENT_SET_NO = 999
REV_AT_EPOCH   = 65197
BSTAR          = .28007E-3
MEAN_MOTION_DOT = .11988E-3
MEAN_MOTION_DDOT = 0

CCSDS_OMM_VERS = 2.0
CREATION_DATE  = 
ORIGINATOR     = 

OBJECT_NAME    = SEASAT 1
OBJECT_ID      = 1978-064A
CENTER_NAME    = EARTH
REF_FRAME      = TEME
TIME_SYSTEM    = UTC
MEAN_ELEMENT_THEORY = SGP/SGP4

EPOCH          = 2025-11-23T17:27:43.668864
MEAN_MOTION    = 14.46029455
ECCENTRICITY   = .0002084
INCLINATION    = 108.0086
RA_OF_ASC_NODE = 263.1511
ARG_OF_PERICENTER = 252.1204
MEAN_ANOMALY   = 107.9715

EPHEMERIS_TYPE = 0
CLASSIFICATION_TYPE = U
NORAD_CAT_ID   = 10967
ELEMENT_SET_NO = 999
REV_AT_EPOCH   = 49119
BSTAR          = .15631E-3
MEAN_MOTION_DOT = .42E-5
MEAN_MOTION_DDOT = 0

CCSDS_OMM_VERS = 2.0
CREATION_DATE  = 
ORIGINATOR     = 

OBJECT_NAME    = SL-14 R/B
OBJECT_ID      = 1979-011B
CENTER_NAME    = EARTH
REF_FRAME      = TEME
TIME_SYSTEM    = UTC
MEAN_ELEMENT_THEORY = SGP/SGP4

EPOCH          = 2025-11-23T17:43:01.733664
MEAN_MOTION    = 14.91736792
ECCENTRICITY   = .0017419
INCLINATION    = 82.5251
RA_OF_ASC_NODE = 197.0634
ARG_OF_PERICENTER = 54.5417
MEAN_ANOMALY   = 305.7425

EPHEMERIS_TYPE = 0
CLASSIFICATION_TYPE = U
NORAD_CAT_ID   = 11267
ELEMENT_SET_NO = 999
REV_AT_EPOCH   = 51298
BSTAR          = .57834E-4
MEAN_MOTION_DOT = .609E-5
MEAN_MOTION_DDOT = 0

CCSDS_OMM_VERS = 2.0
CREATION_DATE  = 
ORIGINATOR     = 

OBJECT_NAME    = SL-8 R/B
OBJECT_ID      = 1979-089B
CENTER_NAME    = EARTH
REF_FRAME      = TEME
TIME_SYSTEM    = UTC
MEAN_ELEMENT_THEORY = SGP/SGP4

EPOCH          = 2025-11-23T08:17:09.282912
MEAN_MOTION    = 14.42263753
ECCENTRICITY   = .0014682
INCLINATION    = 74.0682
RA_OF_ASC_NODE = 287.8740
ARG_OF_PERICENTER = 130.2979
MEAN_ANOMALY   = 229.9463

EPHEMERIS_TYPE = 0
CLASSIFICATION_TYPE = U
NORAD_CAT_ID   = 11574
ELEMENT_SET_NO = 999
REV_AT_EPOCH   = 42077
BSTAR          = .10059E-3
MEAN_MOTION_DOT = .306E-5
MEAN_MOTION_DDOT = 0

CCSDS_OMM_VERS = 2.0
CREATION_DATE  = 
ORIGINATOR     = 

OBJECT_NAME    = SL-14 R/B
OBJECT_ID      = 1980-005B
CENTER_NAME    = EARTH
REF_FRAME      = TEME
TIME_SYSTEM    = UTC
MEAN_ELEMENT_THEORY = SGP/SGP4

EPOCH          = 2025-11-23T17:58:16.775328
MEAN_MOTION    = 14.90756753
ECCENTRICITY   = .0016513
INCLINATION    = 82.5163
RA_OF_ASC_NODE = 47.7074
ARG_OF_PERICENTER = 152.1255
MEAN_ANOMALY   = 208.0852

EPHEMERIS_TYPE = 0
CLASSIFICATION_TYPE = U
NORAD_CAT_ID   = 11672
ELEMENT_SET_NO = 999
REV_AT_EPOCH   = 46070
BSTAR          = .69991E-4
MEAN_MOTION_DOT = .714E-5
MEAN_MOTION_DDOT = 0

CCSDS_OMM_VERS = 2.0
CREATION_DATE  = 
ORIGINATOR     = 

OBJECT_NAME    = SL-8 R/B
OBJECT_ID      = 1981-003B
CENTER_NAME    = EARTH
REF_FRAME      = TEME
TIME_SYSTEM    = UTC
MEAN_ELEMENT_THEORY = SGP/SGP4

EPOCH          = 2025-11-23T16:12:27.986688
MEAN_MOTION    = 15.06117557
ECCENTRICITY   = .0281872
INCLINATION    = 82.9312
RA_OF_ASC_NODE = 27.7388
ARG_OF_PERICENTER = 186.1890
MEAN_ANOMALY   = 173.5837

EPHEMERIS_TYPE = 0
CLASSIFICATION_TYPE = U
NORAD_CAT_ID   = 12139
ELEMENT_SET_NO = 999
REV_AT_EPOCH   = 29869
BSTAR          = .54887E-3
MEAN_MOTION_DOT = .20298E-3
MEAN_MOTION_DDOT = 0

CCSDS_OMM_VERS = 2.0
CREATION_DATE  = 
ORIGINATOR     = 

OBJECT_NAME    = SL-3 R/B
OBJECT_ID      = 1981-046B
CENTER_NAME    = EARTH
REF_FRAME      = TEME
TIME_SYSTEM    = UTC
MEAN_ELEMENT_THEORY = SGP/SGP4

EPOCH          = 2025-11-23T17:06:52.088832
MEAN_MOTION    = 15.39049782
ECCENTRICITY   = .0020211
INCLINATION    = 81.2342
RA_OF_ASC_NODE = 56.6865
ARG_OF_PERICENTER = 30.3107
MEAN_ANOMALY   = 329.9298

EPHEMERIS_TYPE = 0
CLASSIFICATION_TYPE = U
NORAD_CAT_ID   = 12465
ELEMENT_SET_NO = 999
REV_AT_EPOCH   = 42211
BSTAR          = .2775E-3
MEAN_MOTION_DOT = .10839E-3
MEAN_MOTION_DDOT = 0

CCSDS_OMM_VERS = 2.0
CREATION_DATE  = 
ORIGINATOR     = 

OBJECT_NAME    = SL-3 R/B
OBJECT_ID      = 1981-103B
CENTER_NAME    = EARTH
REF_FRAME      = TEME
TIME_SYSTEM    = UTC
MEAN_ELEMENT_THEORY = SGP/SGP4

EPOCH          = 2025-11-23T16:50:29.001120
MEAN_MOTION    = 15.19898597
ECCENTRICITY   = .001151
INCLINATION    = 81.1591
RA_OF_ASC_NODE = 337.6468
ARG_OF_PERICENTER = 287.7197
MEAN_ANOMALY   = 72.2777

EPHEMERIS_TYPE = 0
CLASSIFICATION_TYPE = U
NORAD_CAT_ID   = 12904
ELEMENT_SET_NO = 999
REV_AT_EPOCH   = 95712
BSTAR          = .31841E-3
MEAN_MOTION_DOT = .6873E-4
MEAN_MOTION_DDOT = 0

CCSDS_OMM_VERS = 2.0
CREATION_DATE  = 
ORIGINATOR     = 

OBJECT_NAME    = SL-3 R/B
OBJECT_ID      = 1982-013B
CENTER_NAME    = EARTH
REF_FRAME      = TEME
TIME_SYSTEM    = UTC
MEAN_ELEMENT_THEORY = SGP/SGP4

EPOCH          = 2025-11-23T18:17:18.006144
MEAN_MOTION    = 15.20836449
ECCENTRICITY   = .0022917
INCLINATION    = 81.1743
RA_OF_ASC_NODE = 284.8189
ARG_OF_PERICENTER = 172.4869
MEAN_ANOMALY   = 187.6710

EPHEMERIS_TYPE = 0
CLASSIFICATION_TYPE = U
NORAD_CAT_ID   = 13068
ELEMENT_SET_NO = 999
REV_AT_EPOCH   = 38824
BSTAR          = .22275E-3
MEAN_MOTION_DOT = .4975E-4
MEAN_MOTION_DDOT = 0

CCSDS_OMM_VERS = 2.0
CREATION_DATE  = 
ORIGINATOR     = 

OBJECT_NAME    = SL-3 R/B
OBJECT_ID      = 1982-039B
CENTER_NAME    = EARTH
REF_FRAME      = TEME
TIME_SYSTEM    = UTC
MEAN_ELEMENT_THEORY = SGP/SGP4

EPOCH          = 2025-11-23T17:55:07.160160
MEAN_MOTION    = 15.09363036
ECCENTRICITY   = .0031252
INCLINATION    = 81.1754
RA_OF_ASC_NODE = 337.9415
ARG_OF_PERICENTER = 315.7024
MEAN_ANOMALY   = 44.1700

EPHEMERIS_TYPE = 0
CLASSIFICATION_TYPE = U
NORAD_CAT_ID   = 13154
ELEMENT_SET_NO = 999
REV_AT_EPOCH   = 36565
BSTAR          = .15873E-3
MEAN_MOTION_DOT = .2585E-4
MEAN_MOTION_DDOT = 0

