ATLAS CENTAUR R/B       
1 06155U 72065B   25327.06122413  .00001299  00000+0  18144-3 0  9996
2 06155  35.0006 210.4657 0033998 194.6256 165.3463 14.77335263825489
SL-8 R/B                
1 08459U 75112B   25327.77044990  .00000276  00000+0  99438-4 0  9992
2 08459  74.0605 213.7476 0016137 327.6762  32.3402 14.38127713616645
SL-3 R/B                
1 10114U 77057B   25327.68513838  .00011988  00000+0  28007-3 0  9990
2 10114  97.5685 130.2814 0006781 313.0548  47.0130 15.42320223651971
SEASAT 1                
1 10967U 78064A   25327.72758876  .00000420  00000+0  15631-3 0  9991
2 10967 108.0086 263.1511 0002084 252.1204 107.9715 14.46029455491191
SL-14 R/B               
1 11267U 79011B   25327.73821451  .00000609  00000+0  57834-4 0  9990
2 11267  82.5251 197.0634 0017419  54.5417 305.7425 14.91736792512980
SL-8 R/B                
1 11574U 79089B   25327.34524633  .00000306  00000+0  10059-3 0  9996
2 11574  74.0682 287.8740 0014682 130.2979 229.9463 14.42263753420777
SL-14 R/B               
1 11672U 80005B   25327.74880527  .00000714  00000+0  69991-4 0  9999
2 11672  82.5163  47.7074 0016513 152.1255 208.0852 14.90756753460709
SL-8 R/B                
1 12139U 81003B   25327.67532392  .00020298  00000+0  54887-3 0  9999
2 12139  82.9312  27.7388 0281872 186.1890 173.5837 15.06117557298695
SL-3 R/B                
1 12465U 81046B   25327.71310288  .00010839  00000+0  27750-3 0  9990
2 12465  81.2342  56.6865 0020211  30.3107 329.9298 15.39049782422116
SL-3 R/B                
1 12904U 81103B   25327.70172455  .00006873  00000+0  31841-3 0  9992
2 12904  81.1591 337.6468 0011510 287.7197  72.2777 15.19898597957127
SL-3 R/B                
1 13068U 82013B   25327.76201396  .00004975  00000+0  22275-3 0  9990
2 13068  81.1743 284.8189 0022917 172.4869 187.6710 15.20836449388249
SL-3 R/B                
1 13154U 82039B   25327.74661065  .00002585  00000+0  15873-3 0  9996
2 13154  81.1754 337.9415 0031252 315.7024  44.1700 15.09363036365656
